{"fetched_at":"2026-04-04T02:03:33Z","count":15623,"tles":[{"name":"STARLINK-37128","line1":"1 68385U 26063F   26092.75002315 -.01759455  92081-3 -37773-2 0  9999","line2":"2 68385  97.2831 233.5440 0001616  74.3986  79.7580 15.98657525  2274","category":"Starlink"}]}